*******************************************************************************
Ephemeris / WWW_USER Mon Jul 15 19:05:23 2024 Pasadena, USA      / Horizons    
*******************************************************************************
Target body name: (2018 RD5)                      {source: JPL#11}
Center body name: Earth (399)                     {source: DE441}
Center-site name: Gemini South Obs., Cerro Pachon
*******************************************************************************
Start time      : A.D. 2018-Nov-28 23:37:00.0000 UT      
Stop  time      : A.D. 2018-Nov-29 09:24:00.0000 UT      
Step-size       : 1 minutes
*******************************************************************************
Target pole/equ : undefined
Target radii    : undefined                                                    
Center geodetic : 289.2634, -30.2406227, 2.71233  {E-lon(deg),Lat(deg),Alt(km)}
Center cylindric: 289.2634,5517.21435,-3194.81213 {E-lon(deg),Dxy(km),Dz(km)}
Center pole/equ : ITRF93                          {East-longitude positive}
Center radii    : 6378.137, 6378.137, 6356.752 km {Equator_a, b, pole_c}       
Target primary  : Sun
Vis. interferer : MOON (R_eq= 1737.400) km        {source: DE441}
Rel. light bend : Sun                             {source: DE441}
Rel. lght bnd GM: 1.3271E+11 km^3/s^2                                          
Small-body perts: Yes                             {source: SB441-N16}
Atmos refraction: NO (AIRLESS)
RA format       : HMS
Time format     : CAL 
Calendar mode   : Mixed Julian/Gregorian
RTS-only print  : NO       
EOP file        : eop.240715.p241008                                           
EOP coverage    : DATA-BASED 1962-JAN-20 TO 2024-JUL-15. PREDICTS-> 2024-OCT-07
Units conversion: 1 au= 149597870.700 km, c= 299792.458 km/s, 1 day= 86400.0 s 
Table cut-offs 1: Elevation (-90.0deg=NO ),Airmass (>38.000=NO), Daylight (YES)
Table cut-offs 2: Solar elongation (  0.0,180.0=NO ),Local Hour Angle( 0.0=NO )
Table cut-offs 3: RA/DEC angular rate (     0.0=NO )                           
*******************************************************************************
Initial IAU76/J2000 heliocentric ecliptic osculating elements (au, days, deg.):
  EPOCH=  2458378.5 ! 2018-Sep-17.00 (TDB)         Residual RMS= .55339        
   EC= .2891632988519429   QR= 1.009650912138325   TP= 2458360.6433297051      
   OM= 171.0145363394364   W=  163.7983400129293   IN= 8.474307805886117       
  Equivalent ICRF heliocentric cartesian coordinates (au, au/d):
   X= 1.017757009008053E+00  Y=-8.967367621791844E-02  Z=-4.840656937149759E-02
  VX= 3.309922676318766E-03 VY= 1.832358809606965E-02 VZ= 4.854018792897502E-03
Asteroid physical parameters (km, seconds, rotational period in hours):        
   GM= n.a.                RAD= n.a.               ROTPER= n.a.                
   H= 25.9                 G= .150                 B-V= n.a.                   
                           ALBEDO= n.a.            STYP= n.a.                  
*******************************************************************************
 Date__(UT)__HR:MN     R.A._________(ICRF)_________DEC
******************************************************
$$SOE
 2018-Nov-29 05:46  m  02 53 46.201515 -14 42 08.46046
 2018-Nov-29 05:47  m  02 53 46.201242 -14 42 07.50986
 2018-Nov-29 05:48  m  02 53 46.200990 -14 42 06.55918
 2018-Nov-29 05:49  m  02 53 46.200757 -14 42 05.60842
 2018-Nov-29 05:50  m  02 53 46.200544 -14 42 04.65758
 2018-Nov-29 05:51  m  02 53 46.200351 -14 42 03.70666
 2018-Nov-29 05:52  m  02 53 46.200178 -14 42 02.75566
 2018-Nov-29 05:53  m  02 53 46.200025 -14 42 01.80458
 2018-Nov-29 05:54  m  02 53 46.199892 -14 42 00.85342
 2018-Nov-29 05:55  m  02 53 46.199780 -14 41 59.90218
 2018-Nov-29 05:56  m  02 53 46.199688 -14 41 58.95086
 2018-Nov-29 05:57  m  02 53 46.199616 -14 41 57.99946
 2018-Nov-29 05:58  m  02 53 46.199565 -14 41 57.04798
 2018-Nov-29 05:59  m  02 53 46.199535 -14 41 56.09643
 2018-Nov-29 06:00  m  02 53 46.199525 -14 41 55.14479
 2018-Nov-29 06:01  m  02 53 46.199536 -14 41 54.19308
 2018-Nov-29 06:02  m  02 53 46.199569 -14 41 53.24130
 2018-Nov-29 06:03  m  02 53 46.199622 -14 41 52.28943
 2018-Nov-29 06:04  m  02 53 46.199696 -14 41 51.33749
 2018-Nov-29 06:05  m  02 53 46.199792 -14 41 50.38548
 2018-Nov-29 06:06  m  02 53 46.199909 -14 41 49.43339
 2018-Nov-29 06:07  m  02 53 46.200047 -14 41 48.48122
 2018-Nov-29 06:08  m  02 53 46.200207 -14 41 47.52898
 2018-Nov-29 06:09  m  02 53 46.200388 -14 41 46.57666
 2018-Nov-29 06:10  m  02 53 46.200591 -14 41 45.62427
 2018-Nov-29 06:11  m  02 53 46.200816 -14 41 44.67180
 2018-Nov-29 06:12  m  02 53 46.201062 -14 41 43.71926
 2018-Nov-29 06:13  m  02 53 46.201330 -14 41 42.76665
 2018-Nov-29 06:14  m  02 53 46.201621 -14 41 41.81396
 2018-Nov-29 06:15  m  02 53 46.201933 -14 41 40.86120
 2018-Nov-29 06:16  m  02 53 46.202268 -14 41 39.90837
 2018-Nov-29 06:17  m  02 53 46.202624 -14 41 38.95547
 2018-Nov-29 06:18  m  02 53 46.203004 -14 41 38.00249
 2018-Nov-29 06:19  m  02 53 46.203405 -14 41 37.04945
 2018-Nov-29 06:20  m  02 53 46.203829 -14 41 36.09633
 2018-Nov-29 06:21  m  02 53 46.204276 -14 41 35.14314
 2018-Nov-29 06:22  m  02 53 46.204745 -14 41 34.18988
 2018-Nov-29 06:23  m  02 53 46.205237 -14 41 33.23655
 2018-Nov-29 06:24  m  02 53 46.205752 -14 41 32.28316
 2018-Nov-29 06:25  m  02 53 46.206289 -14 41 31.32969
 2018-Nov-29 06:26  m  02 53 46.206850 -14 41 30.37615
 2018-Nov-29 06:27  m  02 53 46.207434 -14 41 29.42255
 2018-Nov-29 06:28  m  02 53 46.208040 -14 41 28.46887
 2018-Nov-29 06:29  m  02 53 46.208671 -14 41 27.51513
 2018-Nov-29 06:30  m  02 53 46.209324 -14 41 26.56132
 2018-Nov-29 06:31  m  02 53 46.210001 -14 41 25.60745
 2018-Nov-29 06:32  m  02 53 46.210701 -14 41 24.65351
 2018-Nov-29 06:33  m  02 53 46.211424 -14 41 23.69950
 2018-Nov-29 06:34  m  02 53 46.212172 -14 41 22.74542
 2018-Nov-29 06:35  m  02 53 46.212942 -14 41 21.79128
 2018-Nov-29 06:36  m  02 53 46.213737 -14 41 20.83708
 2018-Nov-29 06:37  m  02 53 46.214556 -14 41 19.88280
 2018-Nov-29 06:38  m  02 53 46.215398 -14 41 18.92847
 2018-Nov-29 06:39  m  02 53 46.216264 -14 41 17.97407
 2018-Nov-29 06:40  m  02 53 46.217155 -14 41 17.01961
 2018-Nov-29 06:41  m  02 53 46.218069 -14 41 16.06508
 2018-Nov-29 06:42  m  02 53 46.219008 -14 41 15.11049
 2018-Nov-29 06:43  m  02 53 46.219971 -14 41 14.15584
 2018-Nov-29 06:44  m  02 53 46.220959 -14 41 13.20112
 2018-Nov-29 06:45  m  02 53 46.221970 -14 41 12.24635
 2018-Nov-29 06:46  m  02 53 46.223007 -14 41 11.29151
 2018-Nov-29 06:47  m  02 53 46.224067 -14 41 10.33661
 2018-Nov-29 06:48  m  02 53 46.225153 -14 41 09.38165
 2018-Nov-29 06:49  m  02 53 46.226263 -14 41 08.42663
 2018-Nov-29 06:50  m  02 53 46.227398 -14 41 07.47155
 2018-Nov-29 06:51  m  02 53 46.228557 -14 41 06.51641
 2018-Nov-29 06:52  m  02 53 46.229742 -14 41 05.56121
 2018-Nov-29 06:53  m  02 53 46.230952 -14 41 04.60595
 2018-Nov-29 06:54  m  02 53 46.232186 -14 41 03.65063
 2018-Nov-29 06:55  m  02 53 46.233446 -14 41 02.69526
 2018-Nov-29 06:56  m  02 53 46.234731 -14 41 01.73983
 2018-Nov-29 06:57  m  02 53 46.236041 -14 41 00.78434
 2018-Nov-29 06:58  m  02 53 46.237376 -14 40 59.82879
 2018-Nov-29 06:59  m  02 53 46.238737 -14 40 58.87319
 2018-Nov-29 07:00  m  02 53 46.240123 -14 40 57.91753
 2018-Nov-29 07:01  m  02 53 46.241535 -14 40 56.96181
 2018-Nov-29 07:02  m  02 53 46.242972 -14 40 56.00604
 2018-Nov-29 07:03  m  02 53 46.244435 -14 40 55.05022
 2018-Nov-29 07:04  m  02 53 46.245924 -14 40 54.09434
 2018-Nov-29 07:05  m  02 53 46.247438 -14 40 53.13840
 2018-Nov-29 07:06  m  02 53 46.248978 -14 40 52.18241
 2018-Nov-29 07:07  m  02 53 46.250544 -14 40 51.22637
 2018-Nov-29 07:08  m  02 53 46.252136 -14 40 50.27028
 2018-Nov-29 07:09  m  02 53 46.253754 -14 40 49.31413
 2018-Nov-29 07:10  m  02 53 46.255398 -14 40 48.35794
 2018-Nov-29 07:11  m  02 53 46.257069 -14 40 47.40169
 2018-Nov-29 07:12  m  02 53 46.258765 -14 40 46.44538
 2018-Nov-29 07:13  m  02 53 46.260487 -14 40 45.48903
 2018-Nov-29 07:14  m  02 53 46.262236 -14 40 44.53263
 2018-Nov-29 07:15  m  02 53 46.264011 -14 40 43.57618
 2018-Nov-29 07:16  m  02 53 46.265813 -14 40 42.61967
 2018-Nov-29 07:17  m  02 53 46.267641 -14 40 41.66312
 2018-Nov-29 07:18  m  02 53 46.269496 -14 40 40.70652
 2018-Nov-29 07:19  m  02 53 46.271377 -14 40 39.74987
 2018-Nov-29 07:20  m  02 53 46.273284 -14 40 38.79317
 2018-Nov-29 07:21  m  02 53 46.275219 -14 40 37.83643
 2018-Nov-29 07:22  m  02 53 46.277180 -14 40 36.87964
 2018-Nov-29 07:23  m  02 53 46.279168 -14 40 35.92280
 2018-Nov-29 07:24  m  02 53 46.281183 -14 40 34.96591
 2018-Nov-29 07:25  m  02 53 46.283224 -14 40 34.00898
 2018-Nov-29 07:26  m  02 53 46.285293 -14 40 33.05201
 2018-Nov-29 07:27  m  02 53 46.287389 -14 40 32.09498
 2018-Nov-29 07:28  m  02 53 46.289511 -14 40 31.13792
 2018-Nov-29 07:29  m  02 53 46.291661 -14 40 30.18081
 2018-Nov-29 07:30  m  02 53 46.293838 -14 40 29.22365
 2018-Nov-29 07:31  m  02 53 46.296042 -14 40 28.26646
 2018-Nov-29 07:32  m  02 53 46.298274 -14 40 27.30921
 2018-Nov-29 07:33  m  02 53 46.300532 -14 40 26.35193
 2018-Nov-29 07:34  m  02 53 46.302819 -14 40 25.39461
 2018-Nov-29 07:35  m  02 53 46.305132 -14 40 24.43724
 2018-Nov-29 07:36  m  02 53 46.307473 -14 40 23.47983
 2018-Nov-29 07:37  m  02 53 46.309841 -14 40 22.52238
 2018-Nov-29 07:38  m  02 53 46.312237 -14 40 21.56489
 2018-Nov-29 07:39  m  02 53 46.314661 -14 40 20.60736
 2018-Nov-29 07:40  m  02 53 46.317112 -14 40 19.64979
 2018-Nov-29 07:41  m  02 53 46.319591 -14 40 18.69218
 2018-Nov-29 07:42  m  02 53 46.322097 -14 40 17.73454
 2018-Nov-29 07:43  m  02 53 46.324631 -14 40 16.77685
 2018-Nov-29 07:44  m  02 53 46.327193 -14 40 15.81913
 2018-Nov-29 07:45  m  02 53 46.329783 -14 40 14.86137
 2018-Nov-29 07:46  m  02 53 46.332401 -14 40 13.90357
 2018-Nov-29 07:47  m  02 53 46.335047 -14 40 12.94573
 2018-Nov-29 07:48  m  02 53 46.337721 -14 40 11.98786
